[{"OBJECT_NAME":"TECHNOSAT","OBJECT_ID":"2017-042E","EPOCH":"2026-03-09T21:27:07.546176","MEAN_MOTION":15.04288119,"ECCENTRICITY":0.00196291,"INCLINATION":97.4156,"RA_OF_ASC_NODE":230.4429,"ARG_OF_PERICENTER":75.0719,"MEAN_ANOMALY":285.2679,"EPHEMERIS_TYPE":0,"CLASSIFICATION_TYPE":"U","NORAD_CAT_ID":42829,"ELEMENT_SET_NO":999,"REV_AT_EPOCH":47177,"BSTAR":0.00032015047,"MEAN_MOTION_DOT":4.417e-5,"MEAN_MOTION_DDOT":0},{"OBJECT_NAME":"STARLINK-3791","OBJECT_ID":"2022-041J","EPOCH":"2026-03-09T11:52:31.376640","MEAN_MOTION":15.08839939,"ECCENTRICITY":0.00013718,"INCLINATION":53.2168,"RA_OF_ASC_NODE":109.9949,"ARG_OF_PERICENTER":89.2886,"MEAN_ANOMALY":270.8264,"EPHEMERIS_TYPE":0,"CLASSIFICATION_TYPE":"U","NORAD_CAT_ID":52269,"ELEMENT_SET_NO":999,"REV_AT_EPOCH":21433,"BSTAR":3.3938426e-5,"MEAN_MOTION_DOT":2.52e-6,"MEAN_MOTION_DDOT":0}]
